TIANQI-3                
1 44314U 19032E   26068.73152499  .00022657  00000+0  65631-3 0  9998
2 44314  45.0009 170.4729 0004737 128.7336 231.3974 15.35231484372778
LOPEN                   
1 60473U 24149F   26068.72998475  .00017417  00000+0  48871-3 0  9993
2 60473  97.3812 151.5309 0000865 189.0263 171.0966 15.36629582 86971
