[{"OBJECT_NAME":"TIANQI-3","OBJECT_ID":"2019-032E","EPOCH":"2026-03-09T17:33:23.759136","MEAN_MOTION":15.35231484,"ECCENTRICITY":0.00047367,"INCLINATION":45.0009,"RA_OF_ASC_NODE":170.4729,"ARG_OF_PERICENTER":128.7336,"MEAN_ANOMALY":231.3974,"EPHEMERIS_TYPE":0,"CLASSIFICATION_TYPE":"U","NORAD_CAT_ID":44314,"ELEMENT_SET_NO":999,"REV_AT_EPOCH":37277,"BSTAR":0.0006563115,"MEAN_MOTION_DOT":0.00022657,"MEAN_MOTION_DDOT":0},{"OBJECT_NAME":"LOPEN","OBJECT_ID":"2024-149F","EPOCH":"2026-03-09T17:31:10.682400","MEAN_MOTION":15.36629582,"ECCENTRICITY":8.652e-5,"INCLINATION":97.3812,"RA_OF_ASC_NODE":151.5309,"ARG_OF_PERICENTER":189.0263,"MEAN_ANOMALY":171.0966,"EPHEMERIS_TYPE":0,"CLASSIFICATION_TYPE":"U","NORAD_CAT_ID":60473,"ELEMENT_SET_NO":999,"REV_AT_EPOCH":8697,"BSTAR":0.00048871089,"MEAN_MOTION_DOT":0.00017417,"MEAN_MOTION_DDOT":0}]
